[{"OBJECT_NAME":"COSMOS 2523","OBJECT_ID":"2017-037E","EPOCH":"2026-03-09T23:01:03.762912","MEAN_MOTION":14.95066265,"ECCENTRICITY":0.0066686,"INCLINATION":97.5062,"RA_OF_ASC_NODE":86.2978,"ARG_OF_PERICENTER":201.8356,"MEAN_ANOMALY":158.0021,"EPHEMERIS_TYPE":0,"CLASSIFICATION_TYPE":"U","NORAD_CAT_ID":42986,"ELEMENT_SET_NO":999,"REV_AT_EPOCH":45413,"BSTAR":0.00015362789,"MEAN_MOTION_DOT":1.699e-5,"MEAN_MOTION_DDOT":0},{"OBJECT_NAME":"STARLINK-3980","OBJECT_ID":"2022-052P","EPOCH":"2026-03-09T19:28:55.019424","MEAN_MOTION":15.08837753,"ECCENTRICITY":0.00013595,"INCLINATION":53.2164,"RA_OF_ASC_NODE":283.5749,"ARG_OF_PERICENTER":102.7487,"MEAN_ANOMALY":257.3657,"EPHEMERIS_TYPE":0,"CLASSIFICATION_TYPE":"U","NORAD_CAT_ID":52611,"ELEMENT_SET_NO":999,"REV_AT_EPOCH":21080,"BSTAR":3.1784786e-5,"MEAN_MOTION_DOT":2.18e-6,"MEAN_MOTION_DDOT":0}]
